0 FENGYUN 1C DEB
1 29847U 99025ER  13281.49476837  .00000317  00000-0  23459-3 0  1863
2 29847 099.1073 296.4814 0087686 143.9152 020.3169 14.00723265344366
0 FENGYUN 1C DEB
1 29847U 99025ER  13283.49493078  .00000336  00000-0  24644-3 0  1870
2 29847 099.1071 298.4751 0087751 138.3996 026.3498 14.00725307344644
0 FENGYUN 1C DEB
1 29847U 99025ER  13285.75909524  .00000337  00000-0  24728-3 0  1884
2 29847 099.1068 300.7321 0087843 132.1553 283.6574 14.00726861344967
0 FENGYUN 1C DEB
1 29847U 99025ER  13287.75914314  .00000360  00000-0  26220-3 0  1895
2 29847 099.1065 302.7255 0087892 126.6628 289.1142 14.00728752345242
0 FENGYUN 1C DEB
1 29847U 99025ER  13289.75917529  .00000356  00000-0  25940-3 0  1903
2 29847 099.1064 304.7187 0087993 121.1458 294.5304 14.00730768345521
0 FENGYUN 1C DEB
1 29847U 99025ER  13291.75922398  .00000356  00000-0  25926-3 0  1911
2 29847 099.1066 306.7118 0088059 115.6454 300.0272 14.00732280345806
0 FENGYUN 1C DEB
1 29847U 99025ER  13293.84475843  .00000373  00000-0  27025-3 0  1923
2 29847 099.1069 308.7901 0088127 109.9098 016.6092 14.00733871346096
